#dP2025  1  6  6  0  0.00000000      96 __u+U IGS20 EXT  IAC
## 2348 108000.00000000   900.00000000 60681 0.2500000000000
+   53   G01G02G03G04G05G06G07G08G09G10G11G12G13G14G15G16G17
+        G18G19G20G21G22G23G24G25G26G27G28G29G30G31G32R01R02
+        R03R04R05R07R08R09R11R12R14R15R16R17R18R19R20R21R22
+        R24R26  0  0  0  0  0  0  0  0  0  0  0  0  0  0  0
+          0  0  0  0  0  0  0  0  0  0  0  0  0  0  0  0  0
++        10  8  8  8  7  7  7  8  7  7  7  8  8  8  8  7  8
++         7  8  7  7  7  7  8  7  8  8  7  7  6  7  7 10  7
++         8  7  8  8  8  9  8  7  7  9  8  8  9  9  8  7  9
++         9  7  0  0  0  0  0  0  0  0  0  0  0  0  0  0  0
++         0  0  0  0  0  0  0  0  0  0  0  0  0  0  0  0  0
%c M  cc GPS ccc cccc cccc cccc cccc ccccc ccccc ccccc ccccc
%c cc cc ccc ccc cccc cccc cccc cccc ccccc ccccc ccccc ccccc
%f  0.0000000  0.000000000  0.00000000000  0.000000000000000
%f  0.0000000  0.000000000  0.00000000000  0.000000000000000
%i    0    0    0    0      0      0      0      0         0
%i    0    0    0    0      0      0      0      0         0
/* IAC                                ULTRA-RAPID PREDICTION
/* S/V CLOCKS ARE ALIGNED TO GNSS TIME                      
/* G:C1WC2W R:C1PC2P E:C1XC5X C:C2IC6I J:C1CC2S             
/* PCV:IGS20_2317 OL/AL:FES2004  NONE     YN ORB:CoN CLK:CoN
*  2025 01 06 16 30  0.00000000
PG01  -8673.979446 -14562.066558 -20443.910900     25.880839
PG02  -7502.313141 -13665.486437 -21091.916973   -274.259683
PG03 -12075.862053 -23454.903759  -3733.821588    640.782246
PG04  -3716.436960 -19026.153495  18105.235004    507.822066
PG05   1481.167833  20857.832130  16164.667737   -198.238937
PG06 -24733.374402   6026.816323   7873.797070    -99.487802
PG07 -22404.156645  -7993.733427  12806.048942    -13.798981
PG08   3949.809596 -24372.774390  -9284.801061    455.295919
PG09 -11149.613363 -11151.718399  21272.007116    518.094740
PG10      0.000000      0.000000      0.000000   -265.539395
PG11 -15835.682946  12197.487127  17500.072491   -752.277607
PG12   8407.718873  24454.018565  -6459.318280   -562.892685
PG13 -13215.563882  22672.733441  -3363.619630    692.601664
PG14 -18595.934431  -4685.601454 -18427.960839    574.910068
PG15   -293.565470  24740.539544  -9985.068693    248.502613
PG16   5455.812378 -17539.998631  18658.046410    -84.470390
PG17 -17964.908950   5340.774733 -18491.751095    486.363556
PG18  23822.459397   6204.312846  10296.524081   -658.734143
PG19 -18978.649045  13776.723891 -12170.579598    583.004171
PG20  -8414.849570  13217.802704  21545.288612    367.282535
PG21   -529.007997 -15064.620653 -21429.124031    100.220364
PG22 -14954.179410   3559.961440 -21245.116394    -90.850494
PG23  19233.592633  14339.104649 -11603.324862    398.597550
PG24   5244.980388  15319.339974 -21552.641776   -466.672186
PG25  17449.498061  19522.615703   4868.536413    497.138169
PG26  13171.385504  -8782.980601  21152.706782    -37.629603
PG27  12319.682533 -23221.334085    992.628140    -33.387970
PG28  25267.935912  -5999.565095   5567.399632   -528.534566
PG29  10193.720760  11692.535057  21500.201743   -549.491231
PG30 -26671.850609    337.996373   1533.884301   -245.030178
PG31  20361.333965 -10289.792732  13647.679448   -218.451543
PG32  17844.490428 -10156.843628 -16505.376306   -546.395086
PR01  11064.332750  -3008.615390 -22783.307105    110.326092
PR02   9019.915922 -19275.084567 -13960.345003    -38.671284
PR03   1491.702247 -25234.625558   3200.337702    114.510506
PR04  -6073.762651 -17141.528747  17908.385683    271.446690
PR05 -10737.839777     12.938429  23151.179551    143.338300
PR07  -1441.516204  25265.581983  -3386.516224     98.363423
PR08   6372.483526  16953.316593 -17919.429132     -6.287865
PR09  -9994.825505   6666.624792 -22495.956462    230.544404
PR11  18046.775795  16879.026733  -6291.187314      1.115795
PR12  20636.527376   7447.013024  13041.673591     49.302217
PR14  -6183.029363 -15879.984477  18992.439282     27.549448
PR15 -18831.425242 -16613.578701   4506.298556     72.448349
PR16 -20659.738808  -7592.488018 -12919.989550     32.245098
PR17   5319.202043 -12902.080876 -21347.023875    155.139174
PR18 -11362.951182  -6145.333902 -21983.322748    180.587760
PR19 -21791.719955   1804.082789 -13127.364752   -304.585434
PR20 -21262.788846  11656.002135   8001.852928   -124.227441
PR21  -6653.816358  13027.693134  20895.665987   -165.909627
PR22  12473.965153   6119.104544  21419.695378    -54.566615
PR24  20333.783015 -12952.998649  -8330.355325    -87.092498
PR26   5718.834688  18407.807709 -16674.664231   -132.067453
*  2025 01 06 16 45  0.00000000
PG01  -6287.925459 -14647.654624 -21239.750890     25.911139
PG02  -5011.801131 -14116.571404 -21486.193274   -274.251497
PG03 -11620.821996 -23080.338659  -6556.322217    640.789245
PG04  -2679.336102 -20709.926347  16340.112232    507.827434
PG05    158.607020  19373.963094  17964.725765   -198.239929
PG06 -25470.938434   5919.949284   5096.803503    -99.512362
PG07 -20929.025746  -8299.257136  14974.260694    -13.798489
PG08   4576.621412 -25092.840885  -6626.814042    455.303209
PG09 -10116.226491 -13331.585584  20518.088309    518.108495
PG10      0.000000      0.000000      0.000000   -265.553805
PG11 -17730.390643  12112.180900  15633.507026   -752.276977
PG12   7770.803686  23838.265283  -9124.284546   -562.894734
PG13 -13520.958600  22705.837985   -480.109122    692.602768
PG14 -19582.000433  -6458.214915 -16825.519761    574.916651
PG15   -834.485204  25561.561191  -7408.276677    248.506621
PG16   6719.713354 -15624.619997  19922.843818    -84.461881
PG17 -16980.473011   3299.740147 -19804.323050    486.348261
PG18  22532.198682   6459.631920  12739.455172   -658.733111
PG19 -18380.600720  12364.746485 -14457.585011    583.008334
PG20 -10171.071506  11495.110309  21763.848690    367.282276
PG21   1966.209699 -15431.272236 -20988.914160    100.221712
PG22 -16120.978417   1368.501293 -20620.655823    -90.852397
PG23  19805.933071  15380.781068  -9054.121376    398.604363
PG24   2903.522635  15756.007571 -21646.910387   -466.668747
PG25  17488.120666  20032.664441   2088.868390    497.137702
PG26  14724.585176  -6886.421520  20866.589092    -37.643102
PG27  12457.136804 -22812.740618   3852.977821    -33.387559
PG28  25771.721770  -5806.874528   2763.967514   -528.543477
PG29   8945.303318  13777.777256  20800.206261   -549.488212
PG30 -26383.779192      8.984360   4296.322398   -245.022657
PG31  21826.488720 -10174.222011  11347.790506   -218.450799
PG32  17147.826546  -8238.926662 -18219.115201   -546.389002
PR01  10893.990897   -183.965170 -23060.862919    110.327203
PR02   8711.313004 -17410.796919 -16392.207049    -38.671075
PR03   1344.854178 -25438.442154    -18.144648    114.511073
PR04  -6000.666541 -19213.511218  15686.898041    271.447962
PR05 -10455.722178  -2826.317366  23105.470778    143.338772
PR07  -1290.076287  25504.750621   -177.879672     98.364016
PR08   6306.521965  19042.712863 -15720.214967     -6.288223
PR09 -12301.676819   5208.871150 -21731.885103    230.546366
PR11  17325.857756  16225.117647  -9312.162522      1.113820
PR12  21884.140499   8166.966582  10282.678500     49.302589
PR14  -4193.401826 -14466.277090  20596.263810     27.549414
PR15 -18288.245894 -16089.067804   7594.935089     72.448027
PR16 -21909.002058  -8285.475806 -10140.083650     32.245329
PR17   7596.816307 -14048.646571 -19888.475096    155.142192
PR18  -8810.903861  -7226.526840 -22805.000145    180.589382
PR19 -20078.955093   1287.215653 -15671.839269   -304.586630
PR20 -21918.510082  12150.748687   4887.656366   -124.227751
PR21  -8875.934058  14136.227556  19285.033054   -165.912558
PR22   9971.739371   7125.271537  22399.739970    -54.568453
PR24  21036.611986 -13437.563411  -5261.998764    -87.093920
PR26   5688.586349  20327.637313 -14285.981607   -132.067156
EOF
